start=new Date('2022-08-08T00:00:00.000Z').valueOf();
sats=[{"TLE_LINE2":"2 48429  53.0539 278.4157 0001420  71.2874 288.8269 15.06401900 69491","REF_FRAME":"TEME","MEAN_MOTION":"15.06401900","TIME_SYSTEM":"UTC","PERIOD":"95.592","CENTER_NAME":"EARTH","LAUNCH_DATE":"2021-05-09","OBJECT_TYPE":"PAYLOAD","APOAPSIS":"548.191","NORAD_CAT_ID":"48429","BSTAR":"0.00012715000000","SITE":"AFETR","RA_OF_ASC_NODE":"278.4157","EPHEMERIS_TYPE":"0","ELEMENT_SET_NO":"999","TLE_LINE1":"1 48429U 21040B   22219.47424123  .00001613  00000-0  12715-3 0  9997","FILE":"3531314","COUNTRY_CODE":"US","INCLINATION":"53.0539","OBJECT_NAME":"STARLINK-2749","ARG_OF_PERICENTER":"71.2874","REV_AT_EPOCH":"6949","DECAY_DATE":null,"SEMIMAJOR_AXIS":"6925.343","MEAN_MOTION_DOT":"0.00001613","RCS_SIZE":"LARGE","CLASSIFICATION_TYPE":"U","OBJECT_ID":"2021-040B","MEAN_MOTION_DDOT":"0.0000000000000","PERIAPSIS":"546.224","MEAN_ELEMENT_THEORY":"SGP4","GP_ID":"209761845","MEAN_ANOMALY":"288.8269","ECCENTRICITY":"0.00014200","EPOCH":"2022-08-07T11:22:54.442272"},{"ELEMENT_SET_NO":"999","BSTAR":"0.00003734500000","SITE":"AFETR","EPHEMERIS_TYPE":"0","RA_OF_ASC_NODE":"278.5667","OBJECT_TYPE":"PAYLOAD","APOAPSIS":"548.112","NORAD_CAT_ID":"48430","PERIOD":"95.592","CENTER_NAME":"EARTH","LAUNCH_DATE":"2021-05-09","TIME_SYSTEM":"UTC","MEAN_MOTION":"15.06400446","TLE_LINE2":"2 48430  53.0547 278.5667 0001300  78.4416 281.6719 15.06400446 69492","REF_FRAME":"TEME","ECCENTRICITY":"0.00013000","GP_ID":"209763097","MEAN_ANOMALY":"281.6719","EPOCH":"2022-08-07T10:33:46.788768","MEAN_ELEMENT_THEORY":"SGP4","PERIAPSIS":"546.312","CLASSIFICATION_TYPE":"U","MEAN_MOTION_DDOT":"0.0000000000000","OBJECT_ID":"2021-040C","MEAN_MOTION_DOT":"0.00000275","SEMIMAJOR_AXIS":"6925.347","RCS_SIZE":"LARGE","DECAY_DATE":null,"REV_AT_EPOCH":"6949","ARG_OF_PERICENTER":"78.4416","COUNTRY_CODE":"US","OBJECT_NAME":"STARLINK-2729","INCLINATION":"53.0547","FILE":"3531314","TLE_LINE1":"1 48430U 21040C   22219.44012487  .00000275  00000-0  37345-4 0  9992"},{"MEAN_MOTION_DOT":"0.00000468","SEMIMAJOR_AXIS":"6925.374","RCS_SIZE":"LARGE","CLASSIFICATION_TYPE":"U","OBJECT_ID":"2021-040D","MEAN_MOTION_DDOT":"0.0000000000000","PERIAPSIS":"546.263","MEAN_ELEMENT_THEORY":"SGP4","MEAN_ANOMALY":"270.6453","GP_ID":"209792764","ECCENTRICITY":"0.00014090","EPOCH":"2022-08-07T20:26:15.856224","TLE_LINE1":"1 48431U 21040D   22219.85157241  .00000468  00000-0  50325-4 0  9993","FILE":"3531552","COUNTRY_CODE":"US","OBJECT_NAME":"STARLINK-2700","INCLINATION":"53.0541","ARG_OF_PERICENTER":"89.4698","REV_AT_EPOCH":"6962","DECAY_DATE":null,"CENTER_NAME":"EARTH","PERIOD":"95.593","LAUNCH_DATE":"2021-05-09","OBJECT_TYPE":"PAYLOAD","APOAPSIS":"548.214","NORAD_CAT_ID":"48431","SITE":"AFETR","BSTAR":"0.00005032500000","EPHEMERIS_TYPE":"0","RA_OF_ASC_NODE":"271.7214","ELEMENT_SET_NO":"999","TLE_LINE2":"2 48431  53.0541 271.7214 0001409  89.4698 270.6453 15.06391847 69626","REF_FRAME":"TEME","MEAN_MOTION":"15.06391847","TIME_SYSTEM":"UTC"},{"COUNTRY_CODE":"US","INCLINATION":"53.0546","OBJECT_NAME":"STARLINK-2680","ARG_OF_PERICENTER":"100.1093","REV_AT_EPOCH":"6968","DECAY_DATE":null,"TLE_LINE1":"1 48432U 21040E   22219.83274009  .00000694  00000-0  65440-4 0  9999","FILE":"3531552","PERIAPSIS":"546.413","MEAN_ELEMENT_THEORY":"SGP4","EPOCH":"2022-08-07T19:59:08.743776","GP_ID":"209792514","ECCENTRICITY":"0.00011550","MEAN_ANOMALY":"260.0026","RCS_SIZE":"LARGE","MEAN_MOTION_DOT":"0.00000694","SEMIMAJOR_AXIS":"6925.347","OBJECT_ID":"2021-040E","MEAN_MOTION_DDOT":"0.0000000000000","CLASSIFICATION_TYPE":"U","MEAN_MOTION":"15.06400369","TIME_SYSTEM":"UTC","REF_FRAME":"TEME","TLE_LINE2":"2 48432  53.0546 267.1933 0001155 100.1093 260.0026 15.06400369 69682","EPHEMERIS_TYPE":"0","RA_OF_ASC_NODE":"267.1933","BSTAR":"0.00006544000000","SITE":"AFETR","ELEMENT_SET_NO":"999","LAUNCH_DATE":"2021-05-09","CENTER_NAME":"EARTH","PERIOD":"95.592","APOAPSIS":"548.012","NORAD_CAT_ID":"48432","OBJECT_TYPE":"PAYLOAD"},{"MEAN_MOTION_DDOT":"0.0000000000000","OBJECT_ID":"2021-040F","CLASSIFICATION_TYPE":"U","RCS_SIZE":"LARGE","SEMIMAJOR_AXIS":"6925.373","MEAN_MOTION_DOT":"0.00000671","EPOCH":"2022-08-07T20:17:03.570144","GP_ID":"209793261","ECCENTRICITY":"0.00012230","MEAN_ANOMALY":"268.8334","MEAN_ELEMENT_THEORY":"SGP4","PERIAPSIS":"546.391","FILE":"3531552","TLE_LINE1":"1 48433U 21040F   22219.84518021  .00000671  00000-0  63928-4 0  9990","DECAY_DATE":null,"REV_AT_EPOCH":"6961","ARG_OF_PERICENTER":"91.2795","COUNTRY_CODE":"US","OBJECT_NAME":"STARLINK-2699","INCLINATION":"53.0543","APOAPSIS":"548.085","NORAD_CAT_ID":"48433","OBJECT_TYPE":"PAYLOAD","LAUNCH_DATE":"2021-05-09","PERIOD":"95.593","CENTER_NAME":"EARTH","ELEMENT_SET_NO":"999","EPHEMERIS_TYPE":"0","RA_OF_ASC_NODE":"272.0298","SITE":"AFETR","BSTAR":"0.00006392800000","REF_FRAME":"TEME","TLE_LINE2":"2 48433  53.0543 272.0298 0001223  91.2795 268.8334 15.06392061 69614","TIME_SYSTEM":"UTC","MEAN_MOTION":"15.06392061"},{"EPHEMERIS_TYPE":"0","RA_OF_ASC_NODE":"278.9047","SITE":"AFETR","BSTAR":"0.00001680200000","ELEMENT_SET_NO":"999","LAUNCH_DATE":"2021-05-09","CENTER_NAME":"EARTH","PERIOD":"95.593","APOAPSIS":"548.016","NORAD_CAT_ID":"48434","OBJECT_TYPE":"PAYLOAD","MEAN_MOTION":"15.06390451","TIME_SYSTEM":"UTC","REF_FRAME":"TEME","TLE_LINE2":"2 48434  53.0554 278.9047 0001116 110.2273 249.8836 15.06390451 69941","PERIAPSIS":"546.470","MEAN_ELEMENT_THEORY":"SGP4","EPOCH":"2022-08-07T11:28:18.629760","GP_ID":"209739456","MEAN_ANOMALY":"249.8836","ECCENTRICITY":"0.00011160","RCS_SIZE":"LARGE","MEAN_MOTION_DOT":"-0.00000031","SEMIMAJOR_AXIS":"6925.378","OBJECT_ID":"2021-040G","MEAN_MOTION_DDOT":"0.0000000000000","CLASSIFICATION_TYPE":"U","COUNTRY_CODE":"US","OBJECT_NAME":"STARLINK-2692","INCLINATION":"53.0554","ARG_OF_PERICENTER":"110.2273","REV_AT_EPOCH":"6994","DECAY_DATE":null,"TLE_LINE1":"1 48434U 21040G   22219.47799340 -.00000031  00000-0  16802-4 0  9995","FILE":"3531253"},{"EPHEMERIS_TYPE":"0","RA_OF_ASC_NODE":"287.7772","BSTAR":"0.00003741000000","SITE":"AFETR","ELEMENT_SET_NO":"999","LAUNCH_DATE":"2021-05-09","PERIOD":"95.593","CENTER_NAME":"EARTH","NORAD_CAT_ID":"48435","APOAPSIS":"548.325","OBJECT_TYPE":"PAYLOAD","MEAN_MOTION":"15.06389082","TIME_SYSTEM":"UTC","REF_FRAME":"TEME","TLE_LINE2":"2 48435  53.0562 287.7772 0001557  65.4499 294.6652 15.06389082 69373","PERIAPSIS":"546.169","MEAN_ELEMENT_THEORY":"SGP4","EPOCH":"2022-08-07T14:48:35.545248","ECCENTRICITY":"0.00015570","GP_ID":"209792264","MEAN_ANOMALY":"294.6652","RCS_SIZE":"LARGE","SEMIMAJOR_AXIS":"6925.382","MEAN_MOTION_DOT":"0.00000276","OBJECT_ID":"2021-040H","MEAN_MOTION_DDOT":"0.0000000000000","CLASSIFICATION_TYPE":"U","COUNTRY_CODE":"US","INCLINATION":"53.0562","OBJECT_NAME":"STARLINK-2633","ARG_OF_PERICENTER":"65.4499","REV_AT_EPOCH":"6937","DECAY_DATE":null,"TLE_LINE1":"1 48435U 21040H   22219.61707807  .00000276  00000-0  37410-4 0  9997","FILE":"3531552"},{"EPHEMERIS_TYPE":"0","RA_OF_ASC_NODE":"302.5191","BSTAR":"0.00001873400000","SITE":"AFETR","ELEMENT_SET_NO":"999","LAUNCH_DATE":"2021-05-09","PERIOD":"95.593","CENTER_NAME":"EARTH","APOAPSIS":"548.238","NORAD_CAT_ID":"48436","OBJECT_TYPE":"PAYLOAD","TIME_SYSTEM":"UTC","MEAN_MOTION":"15.06393911","REF_FRAME":"TEME","TLE_LINE2":"2 48436  53.0565 302.5191 0001453  92.2497 267.8658 15.06393911 69171","MEAN_ELEMENT_THEORY":"SGP4","PERIAPSIS":"546.226","EPOCH":"2022-08-07T16:08:52.009152","GP_ID":"209793015","MEAN_ANOMALY":"267.8658","ECCENTRICITY":"0.00014530","RCS_SIZE":"LARGE","MEAN_MOTION_DOT":"-0.00000002","SEMIMAJOR_AXIS":"6925.367","MEAN_MOTION_DDOT":"0.0000000000000","OBJECT_ID":"2021-040J","CLASSIFICATION_TYPE":"U","ARG_OF_PERICENTER":"92.2497","OBJECT_NAME":"STARLINK-2639","COUNTRY_CODE":"US","INCLINATION":"53.0565","DECAY_DATE":null,"REV_AT_EPOCH":"6917","FILE":"3531552","TLE_LINE1":"1 48436U 21040J   22219.67282418 -.00000002  00000-0  18734-4 0  9996"},{"TIME_SYSTEM":"UTC","MEAN_MOTION":"15.06397223","REF_FRAME":"TEME","TLE_LINE2":"2 48437  53.0578 312.5812 0001382  69.3462 290.7675 15.06397223 69034","RA_OF_ASC_NODE":"312.5812","EPHEMERIS_TYPE":"0","BSTAR":"-0.00004288000000","SITE":"AFETR","ELEMENT_SET_NO":"999","LAUNCH_DATE":"2021-05-09","PERIOD":"95.592","CENTER_NAME":"EARTH","APOAPSIS":"548.179","NORAD_CAT_ID":"48437","OBJECT_TYPE":"PAYLOAD","ARG_OF_PERICENTER":"69.3462","INCLINATION":"53.0578","COUNTRY_CODE":"US","OBJECT_NAME":"STARLINK-2642","DECAY_DATE":null,"REV_AT_EPOCH":"6903","FILE":"3531552","TLE_LINE1":"1 48437U 21040K   22219.65715592 -.00000920  00000-0 -42880-4 0  9998","MEAN_ELEMENT_THEORY":"SGP4","PERIAPSIS":"546.265","EPOCH":"2022-08-07T15:46:18.271488","GP_ID":"209793762","ECCENTRICITY":"0.00013820","MEAN_ANOMALY":"290.7675","RCS_SIZE":"LARGE","SEMIMAJOR_AXIS":"6925.357","MEAN_MOTION_DOT":"-0.00000920","MEAN_MOTION_DDOT":"0.0000000000000","OBJECT_ID":"2021-040K","CLASSIFICATION_TYPE":"U"},{"MEAN_MOTION_DDOT":"0.0000000000000","OBJECT_ID":"2021-040L","CLASSIFICATION_TYPE":"U","RCS_SIZE":"LARGE","SEMIMAJOR_AXIS":"6925.362","MEAN_MOTION_DOT":"-0.00000383","EPOCH":"2022-08-07T14:28:01.033536","GP_ID":"209794002","MEAN_ANOMALY":"288.6261","ECCENTRICITY":"0.00014130","MEAN_ELEMENT_THEORY":"SGP4","PERIAPSIS":"546.248","FILE":"3531552","TLE_LINE1":"1 48438U 21040L   22219.60278974 -.00000383  00000-0 -68334-5 0  9998","DECAY_DATE":null,"REV_AT_EPOCH":"6916","ARG_OF_PERICENTER":"71.4882","INCLINATION":"53.0550","COUNTRY_CODE":"US","OBJECT_NAME":"STARLINK-2640","APOAPSIS":"548.206","NORAD_CAT_ID":"48438","OBJECT_TYPE":"PAYLOAD","LAUNCH_DATE":"2021-05-09","PERIOD":"95.592","CENTER_NAME":"EARTH","ELEMENT_SET_NO":"999","EPHEMERIS_TYPE":"0","RA_OF_ASC_NODE":"302.8262","SITE":"AFETR","BSTAR":"-0.00000683340000","REF_FRAME":"TEME","TLE_LINE2":"2 48438  53.0550 302.8262 0001413  71.4882 288.6261 15.06395600 69169","TIME_SYSTEM":"UTC","MEAN_MOTION":"15.06395600"}];
